PICO-02A021             
1 60538U 24149BY  26137.94308812  .00003453  00000+0  26140-3 0  9996
2 60538  97.6770 217.0444 0007251 113.4970 246.7018 15.02942458 95194
ICEYE-X43               
1 60539U 24149BZ  26138.13796502  .00001903  00000+0  15872-3 0  9994
2 60539  97.6765 215.5180 0005144 180.6538 179.4680 14.99764417 95610
HAWK-10A                
1 60540U 24149CA  26138.14684884  .00001157  00000+0  10710-3 0  9993
2 60540  97.6893 214.5755 0004115 152.0285 208.1159 14.96407876 95497
UMBRA-09                
1 60541U 24149CB  26138.19757814  .00008427  00000+0  42931-3 0  9990
2 60541  97.6966 224.9146 0001231 123.3552 236.7799 15.17040964 96170
QPS-SAR-8 (AMATERU-IV)  
1 60542U 24149CC  26138.18749084  .00002610  00000+0  19441-3 0  9998
2 60542  97.6652 217.5970 0003067 188.1849 171.9327 15.03790678 95763
ARCTIC WEATHER SATELLITE
1 60543U 24149CD  26138.13112191  .00000531  00000+0  60969-4 0  9999
2 60543  97.6809 209.4540 0002075 165.8522 194.2754 14.89800983 94821
CAPELLA-15 (ACADIA-5)   
1 60544U 24149CE  26138.15182735  .00000886  00000+0  91694-4 0  9995
2 60544  97.6780 211.8023 0004631 162.3136 197.8246 14.92476225 95374
HAWK-10B                
1 60545U 24149CF  26138.14670198  .00001208  00000+0  11158-3 0  9995
2 60545  97.6815 213.9608 0005443 177.1313 182.9940 14.96408855 95496
ICEYE-X39               
1 60546U 24149CG  26138.18758583  .00001017  00000+0  87183-4 0  9995
2 60546  97.6810 215.6201 0002580 173.8847 186.2408 14.99704467 95626
UMBRA-10                
1 60547U 24149CH  26138.19712649  .00009168  00000+0  46664-3 0  9993
2 60547  97.6973 224.9395 0002135 103.2499 256.8972 15.17048039 96189
ICEYE-X33               
1 60548U 24149CJ  26138.16847362  .00003226  00000+0  25807-3 0  9997
2 60548  97.7187 217.4908 0000306 320.5327  39.5875 15.00906629 95702
ICEYE-X40               
1 60549U 24149CK  26138.17476700  .00001173  00000+0  10467-3 0  9998
2 60549  97.6822 215.1545 0005128 156.4138 203.7321 14.97843119 95589
SATELIOT_1              
1 60550U 24149CL  26138.16820907  .00001809  00000+0  15831-3 0  9997
2 60550  97.6763 214.5678 0007120 159.0134 201.1382 14.97940600 95575
BRO-14                  
1 60551U 24149CM  26138.16617390  .00000911  00000+0  86049-4 0  9991
2 60551  97.6880 214.4832 0006472 183.4195 176.6983 14.96116876 95509
SATELIOT_3              
1 60552U 24149CN  26138.21054027  .00001273  00000+0  11300-3 0  9999
2 60552  97.6817 215.3730 0005469 171.0981 189.0340 14.97914632 95599
BRO-15                  
1 60553U 24149CP  26138.14788763  .00000781  00000+0  74528-4 0  9998
2 60553  97.6804 214.0953 0008201 177.4572 182.6693 14.96070531 95514
UM5-RIBAT               
1 60554U 24149CQ  26138.13972863  .00001795  00000+0  14574-3 0  9994
2 60554  97.6658 216.3453 0003469 109.4143 250.7456 15.00888690 95683
UM5-EOSAT               
1 60555U 24149CR  26138.18124036  .00001955  00000+0  15661-3 0  9997
2 60555  97.6656 217.2912 0007228 202.9784 157.1117 15.01294447 95719
LASARSAT                
1 62391U 24247Q   26138.17664598  .00017977  00000+0  38742-3 0  9993
2 62391  44.9757  70.5961 0005334 157.7769 202.3352 15.44378844 78677
CROCUBE                 
1 62394U 24247T   26138.20848084  .00021336  00000+0  43364-3 0  9994
2 62394  44.9731  68.2037 0005074 161.9433 198.1638 15.45997443 78702
TEVEL2-4                
1 63213U 25052D   26138.17650154  .00010323  00000+0  32134-3 0  9992
2 63213  97.3938  34.5398 0002322 160.5325 199.6007 15.33477611 65516
TEVEL2-5                
1 63214U 25052E   26137.93275079  .00012229  00000+0  38209-3 0  9991
2 63214  97.3937  34.2522 0002210 160.4809 199.6519 15.33315937 65479
TEVEL2-6                
1 63215U 25052F   26138.14013286  .00009992  00000+0  31307-3 0  9991
2 63215  97.3942  34.4439 0002331 161.8765 198.2561 15.33280911 65504
TEVEL2-1                
1 63217U 25052H   26137.70216278  .00010606  00000+0  33739-3 0  9995
2 63217  97.3919  33.6655 0001774 176.5909 183.5346 15.32779437 65428
TEVEL2-3                
1 63218U 25052J   26138.15479912  .00009530  00000+0  30289-3 0  9993
2 63218  97.3915  34.1361 0001816 174.9518 185.1743 15.32837184 65490
TEVEL2-2                
1 63219U 25052K   26138.15960098  .00009421  00000+0  29987-3 0  9996
2 63219  97.3912  34.1244 0001750 177.2804 182.8448 15.32794871 65490
TEVEL2-9                
1 63237U 25052AD  26138.16449175  .00008810  00000+0  29746-3 0  9999
2 63237  97.3974  33.5674 0004219 237.0986 122.9849 15.30908650 65431
TEVEL2-7                
1 63238U 25052AE  26138.19989160  .00008649  00000+0  29451-3 0  9999
2 63238  97.3976  33.5307 0004394 237.4810 122.6007 15.30638211 65437
TEVEL2-8                
1 63239U 25052AF  26137.68481206  .00009067  00000+0  30887-3 0  9991
2 63239  97.3978  32.9954 0004253 241.2273 118.8541 15.30610503 65356
HADES-ICM               
1 63492U 25052BN  26137.97866731  .01545954  15531-2  22396-2 0  9998
2 63492  97.3719  42.5940 0010983 184.5860 175.5323 16.05564593 66034
