OBJECT_NAME,OBJECT_ID,EPOCH,MEAN_MOTION,ECCENTRICITY,INCLINATION,RA_OF_ASC_NODE,ARG_OF_PERICENTER,MEAN_ANOMALY,EPHEMERIS_TYPE,CLASSIFICATION_TYPE,NORAD_CAT_ID,ELEMENT_SET_NO,REV_AT_EPOCH,BSTAR,MEAN_MOTION_DOT,MEAN_MOTION_DDOT
PICO-02A021,2024-149BY,2026-05-17T22:38:02.813568,15.02942458,.00072513,97.6770,217.0444,113.4970,246.7018,0,U,60538,999,9519,.2614002E-3,.3453E-4,0
ICEYE-X43,2024-149BZ,2026-05-18T03:18:40.177728,14.99764417,.0005144,97.6765,215.5180,180.6538,179.4680,0,U,60539,999,9561,.15872E-3,.1903E-4,0
HAWK-10A,2024-149CA,2026-05-18T03:31:27.739776,14.96407876,.0004115,97.6893,214.5755,152.0285,208.1159,0,U,60540,999,9549,.1071E-3,.1157E-4,0
UMBRA-09,2024-149CB,2026-05-18T04:44:30.751296,15.17040964,.0001231,97.6966,224.9146,123.3552,236.7799,0,U,60541,999,9617,.42931E-3,.8427E-4,0
QPS-SAR-8 (AMATERU-IV),2024-149CC,2026-05-18T04:29:59.208576,15.03790678,.0003067,97.6652,217.5970,188.1849,171.9327,0,U,60542,999,9576,.19441E-3,.261E-4,0
ARCTIC WEATHER SATELLITE,2024-149CD,2026-05-18T03:08:48.933024,14.89800983,.0002075,97.6809,209.4540,165.8522,194.2754,0,U,60543,999,9482,.60969E-4,.531E-5,0
CAPELLA-15 (ACADIA-5),2024-149CE,2026-05-18T03:38:37.883040,14.92476225,.0004631,97.6780,211.8023,162.3136,197.8246,0,U,60544,999,9537,.91694E-4,.886E-5,0
HAWK-10B,2024-149CF,2026-05-18T03:31:15.051072,14.96408855,.0005443,97.6815,213.9608,177.1313,182.9940,0,U,60545,999,9549,.11158E-3,.1208E-4,0
ICEYE-X39,2024-149CG,2026-05-18T04:30:07.415712,14.99704467,.000258,97.6810,215.6201,173.8847,186.2408,0,U,60546,999,9562,.87183E-4,.1017E-4,0
UMBRA-10,2024-149CH,2026-05-18T04:43:51.728736,15.17048039,.0002135,97.6973,224.9395,103.2499,256.8972,0,U,60547,999,9618,.46664E-3,.9168E-4,0
ICEYE-X33,2024-149CJ,2026-05-18T04:02:36.120768,15.00906629,.0000306,97.7187,217.4908,320.5327,39.5875,0,U,60548,999,9570,.25807E-3,.3226E-4,0
ICEYE-X40,2024-149CK,2026-05-18T04:11:39.868800,14.97843119,.0005128,97.6822,215.1545,156.4138,203.7321,0,U,60549,999,9558,.10467E-3,.1173E-4,0
SATELIOT_1,2024-149CL,2026-05-18T04:02:13.263648,14.97940600,.000712,97.6763,214.5678,159.0134,201.1382,0,U,60550,999,9557,.15831E-3,.1809E-4,0
BRO-14,2024-149CM,2026-05-18T03:59:17.424960,14.96116876,.0006472,97.6880,214.4832,183.4195,176.6983,0,U,60551,999,9550,.86049E-4,.911E-5,0
SATELIOT_3,2024-149CN,2026-05-18T05:03:10.679328,14.97914632,.0005469,97.6817,215.3730,171.0981,189.0340,0,U,60552,999,9559,.113E-3,.1273E-4,0
BRO-15,2024-149CP,2026-05-18T03:32:57.491232,14.96070531,.0008201,97.6804,214.0953,177.4572,182.6693,0,U,60553,999,9551,.74528E-4,.781E-5,0
UM5-RIBAT,2024-149CQ,2026-05-18T03:21:12.553632,15.00888690,.0003469,97.6658,216.3453,109.4143,250.7456,0,U,60554,999,9568,.14574E-3,.1795E-4,0
UM5-EOSAT,2024-149CR,2026-05-18T04:20:59.167104,15.01294447,.0007228,97.6656,217.2912,202.9784,157.1117,0,U,60555,999,9571,.15661E-3,.1955E-4,0
LASARSAT,2024-247Q,2026-05-18T04:14:22.212672,15.44378844,.0005334,44.9757,70.5961,157.7769,202.3352,0,U,62391,999,7867,.38742E-3,.17977E-3,0
CROCUBE,2024-247T,2026-05-18T05:00:12.744576,15.45997443,.0005074,44.9731,68.2037,161.9433,198.1638,0,U,62394,999,7870,.43364E-3,.21336E-3,0
TEVEL2-4,2025-052D,2026-05-18T04:14:09.733056,15.33477611,.0002322,97.3938,34.5398,160.5325,199.6007,0,U,63213,999,6551,.32134E-3,.10323E-3,0
TEVEL2-5,2025-052E,2026-05-17T22:23:09.668256,15.33315937,.00022104,97.3937,34.2522,160.4809,199.6519,0,U,63214,999,6547,.38208888E-3,.12229E-3,0
TEVEL2-6,2025-052F,2026-05-18T03:21:47.479104,15.33280911,.0002331,97.3942,34.4439,161.8765,198.2561,0,U,63215,999,6550,.31307E-3,.9992E-4,0
TEVEL2-1,2025-052H,2026-05-17T16:51:06.864192,15.32779437,.00017748,97.3919,33.6655,176.5909,183.5346,0,U,63217,999,6542,.33738546E-3,.10606E-3,0
TEVEL2-3,2025-052J,2026-05-18T03:42:54.643968,15.32837184,.0001816,97.3915,34.1361,174.9518,185.1743,0,U,63218,999,6549,.30289E-3,.953E-4,0
TEVEL2-2,2025-052K,2026-05-18T03:49:49.524672,15.32794871,.000175,97.3912,34.1244,177.2804,182.8448,0,U,63219,999,6549,.29987E-3,.9421E-4,0
TEVEL2-9,2025-052AD,2026-05-18T03:56:52.087200,15.30908650,.0004219,97.3974,33.5674,237.0986,122.9849,0,U,63237,999,6543,.29746E-3,.881E-4,0
TEVEL2-7,2025-052AE,2026-05-18T04:47:50.634240,15.30638211,.0004394,97.3976,33.5307,237.4810,122.6007,0,U,63238,999,6543,.29451E-3,.8649E-4,0
TEVEL2-8,2025-052AF,2026-05-17T16:26:07.761984,15.30610503,.00042534,97.3978,32.9954,241.2273,118.8541,0,U,63239,999,6535,.3088695E-3,.9067E-4,0
HADES-ICM,2025-052BN,2026-05-17T23:29:16.855584,16.05564593,.00109834,97.3719,42.5940,184.5860,175.5323,0,U,63492,999,6603,.22396025E-2,.1545954E-1,.15531456E-2
